NORAD_CAT_ID,OBJECT_NAME,OBJECT_TYPE,EPOCH,MEAN_MOTION,ECCENTRICITY,INCLINATION,RA_OF_ASC_NODE,ARG_OF_PERICENTER,MEAN_ANOMALY,BSTAR,MEAN_MOTION_DOT,MEAN_MOTION_DDOT,TLE_LINE0,TLE_LINE1,TLE_LINE2,SEMIMAJOR_AXIS,PERIOD,APOGEE,PERIGEE,DECAYED
53898.0,STARLINK-5044,PAYLOAD,2022-11-03 22:00:00,15.73500656,0.0003177,53.2162,55.2769,348.5489,161.719,-0.0078081,-0.01005059,0.0,0 STARLINK-5044,1 53898U 22119N   22307.91667824 -.01005059  00000-0 -78081-2 0  9993,2 53898  53.2162  55.2769 0003177 348.5489 161.7190 15.73500656  6725,6727.038000000001,91.516,351.04,346.766,0.0
53898.0,STARLINK-5044,PAYLOAD,2022-11-04 06:00:00,15.73038121,0.0002991,53.2168,53.6158,301.5771,297.453,-0.0072068,-0.00903729,0.0,0 STARLINK-5044,1 53898U 22119N   22308.25001157 -.00903729  00000-0 -72068-2 0  9991,2 53898  53.2168  53.6158 0002991 301.5771 297.4530 15.73038121  6774,6728.357,91.543,352.2340000000001,348.209,0.0
53898.0,STARLINK-5044,PAYLOAD,2022-11-04 14:00:01,15.72384958,0.0005412,53.2172,51.9676,278.4499,48.9232,-0.0094048,-0.01139199,0.0,0 STARLINK-5044,1 53898U 22119N   22308.58334491 -.01139199  00000-0 -94048-2 0  9992,2 53898  53.2172  51.9676 0005412 278.4499  48.9232 15.72384958  6820,6730.22,91.581,355.727,348.4430000000001,0.0
53898.0,STARLINK-5044,PAYLOAD,2022-11-04 22:00:01,15.71535143,0.0006134,53.2168,50.3235,274.9308,139.9603,-0.0092205,-0.01083798,0.0,0 STARLINK-5044,1 53898U 22119N   22308.91668981 -.01083798  00000-0 -92205-2 0  9999,2 53898  53.2168  50.3235 0006134 274.9308 139.9603 15.71535143  1305,6732.646,91.63,358.641,350.381,0.0
53898.0,STARLINK-5044,PAYLOAD,2022-11-05 12:00:00,15.70069932,0.0002038,53.2173,47.4475,282.8248,192.6901,-0.0093368,-0.01034459,0.0,0 STARLINK-5044,1 53898U 22119N   22309.50001157 -.01034459  00000-0 -93368-2 0  9992,2 53898  53.2173  47.4475 0002038 282.8248 192.6901 15.70069932  6976,6736.834,91.716,360.07199999999995,357.326,0.0
53898.0,STARLINK-5044,PAYLOAD,2022-11-05 14:00:01,15.69928305,0.0001293,53.2175,47.0356,285.8448,300.9835,-0.010172,-0.01110898,0.0,0 STARLINK-5044,1 53898U 22119N   22309.58335648 -.01110898  00000-0 -10172-1 0  9998,2 53898  53.2175  47.0356 0001293 285.8448 300.9835 15.69928305  1307,6737.239000000001,91.724,359.975,358.233,0.0
53898.0,STARLINK-5044,PAYLOAD,2022-11-05 22:00:01,15.68901934,0.0006335,53.2163,45.393,276.0744,35.3669,-0.0076812,-0.00818452,0.0,0 STARLINK-5044,1 53898U 22119N   22309.91668981 -.00818452  00000-0 -76812-2 0  9998,2 53898  53.2163  45.3930 0006335 276.0744  35.3669 15.68901934  7034,6740.177,91.784,366.312,357.772,0.0
53898.0,STARLINK-5044,PAYLOAD,2022-11-06 06:00:00,15.68310117,0.0006875,53.2175,43.753,271.4496,123.3455,-0.010988,-0.01123734,0.0,0 STARLINK-5044,1 53898U 22119N   22310.25001157 -.01123734  00000-0 -10988-1 0  9997,2 53898  53.2175  43.7530 0006875 271.4496 123.3455 15.68310117  7091,6741.873000000001,91.819,368.37300000000016,359.103,0.0
53898.0,STARLINK-5044,PAYLOAD,2022-11-06 14:00:01,15.67236777,0.0001009,53.2176,42.119,17.3345,100.1433,-0.0077417,-0.00772523,0.0,0 STARLINK-5044,1 53898U 22119N   22310.58334491 -.00772523  00000-0 -77417-2 0  9999,2 53898  53.2176  42.1190 0001009  17.3345 100.1433 15.67236777  1306,6744.95,91.881,367.496,366.135,0.0
53898.0,STARLINK-5044,PAYLOAD,2022-11-06 22:00:00,15.66484568,0.0001699,53.2166,40.4845,35.2486,163.7659,-0.0088249,-0.00846392,0.0,0 STARLINK-5044,1 53898U 22119N   22310.91667824 -.00846392  00000-0 -88249-2 0  9996,2 53898  53.2166  40.4845 0001699  35.2486 163.7659 15.66484568  7193,6747.11,91.926,370.121,367.828,0.0
53898.0,STARLINK-5044,PAYLOAD,2022-11-07 06:00:00,15.65816179,0.0004592,53.2167,38.8503,274.3214,5.2178,-0.011373,-0.01056195,0.0,0 STARLINK-5044,1 53898U 22119N   22311.25001157 -.01056195  00000-0 -11373-1 0  9993,2 53898  53.2167  38.8503 0004592 274.3214   5.2178 15.65816179  7244,6749.029,91.965,373.994,367.795,0.0
53898.0,STARLINK-5044,PAYLOAD,2022-11-07 22:00:00,15.64238913,0.0001618,53.2175,35.5904,33.4014,44.3694,-0.012941,-0.01137263,0.0,0 STARLINK-5044,1 53898U 22119N   22311.91667824 -.01137263  00000-0 -12941-1 0  9993,2 53898  53.2175  35.5904 0001618  33.4014  44.3694 15.64238913  1301,6753.566,92.058,376.523,374.338,0.0
53898.0,STARLINK-5044,PAYLOAD,2022-11-08 12:00:00,15.62880902,0.0001527,53.217,32.7472,48.7489,74.2496,-0.014749,-0.01218949,0.0,0 STARLINK-5044,1 53898U 22119N   22312.50001157 -.01218949  00000-0 -14749-1 0  9999,2 53898  53.2170  32.7472 0001527  48.7489  74.2496 15.62880902  7441,6757.477,92.138,380.374,378.31,0.0
53898.0,STARLINK-5044,PAYLOAD,2022-11-08 14:00:01,15.62633353,0.0001446,53.2173,32.3413,56.9413,175.1622,-0.014181,-0.01166225,0.0,0 STARLINK-5044,1 53898U 22119N   22312.58334491 -.01166225  00000-0 -14181-1 0  9996,2 53898  53.2173  32.3413 0001446  56.9413 175.1622 15.62633353  1300,6758.191,92.152,381.033,379.079,0.0
53898.0,STARLINK-5044,PAYLOAD,2022-11-08 22:00:00,15.61797984,0.0001326,53.217,30.7168,46.3074,261.5133,-0.014258,-0.01137665,0.0,0 STARLINK-5044,1 53898U 22119N   22312.91667824 -.01137665  00000-0 -14258-1 0  9993,2 53898  53.2170  30.7168 0001326  46.3074 261.5133 15.61797984  7504,6760.6,92.201,383.362,381.569,0.0
53898.0,STARLINK-5044,PAYLOAD,2022-11-09 14:00:01,15.59953152,0.0001339,53.217,27.4786,59.9608,36.4433,-0.010996,-0.00828966,0.0,0 STARLINK-5044,1 53898U 22119N   22313.58334491 -.00828966  00000-0 -10996-1 0  9993,2 53898  53.2170  27.4786 0001339  59.9608  36.4433 15.59953152  7612,6765.93,92.31,388.7,386.889,0.0
53898.0,STARLINK-5044,PAYLOAD,2022-11-09 22:00:01,15.59297528,0.0001413,53.2171,25.8597,59.5503,109.6111,-0.014406,-0.01051726,0.0,0 STARLINK-5044,1 53898U 22119N   22313.91668981 -.01051726  00000-0 -14406-1 0  9997,2 53898  53.2171  25.8597 0001413  59.5503 109.6111 15.59297528  7667,6767.826,92.349,390.647,388.735,0.0
53898.0,STARLINK-5044,PAYLOAD,2022-11-10 06:00:00,15.58386636,0.0001222,53.2167,24.2449,78.4455,162.4932,-0.01287,-0.0090624,0.0,0 STARLINK-5044,1 53898U 22119N   22314.25001157 -.00906240  00000-0 -12870-1 0  9993,2 53898  53.2167  24.2449 0001222  78.4455 162.4932 15.58386636  7717,6770.4630000000025,92.403,393.155,391.501,0.0
53898.0,STARLINK-5044,PAYLOAD,2022-11-10 14:00:01,15.57714437,0.0001229,53.217,22.6344,62.7846,248.901,-0.016308,-0.01114449,0.0,0 STARLINK-5044,1 53898U 22119N   22314.58334491 -.01114449  00000-0 -16308-1 0  9992,2 53898  53.2170  22.6344 0001229  62.7846 248.9010 15.57714437  1303,6772.411,92.443,395.108,393.443,0.0
53898.0,STARLINK-5044,PAYLOAD,2022-11-10 20:00:01,15.57118649,0.0001200999999999,53.2174,21.4236,66.3553,207.7961,-0.017021,-0.01135116,0.0,0 STARLINK-5044,1 53898U 22119N   22314.83334491 -.01135116  00000-0 -17021-1 0  9997,2 53898  53.2174  21.4236 0001201  66.3553 207.7961 15.57118649  7801,6774.138000000001,92.479,396.817,395.189,0.0
53898.0,STARLINK-5044,PAYLOAD,2022-11-10 22:00:00,15.56916161,0.0001217,53.2172,21.0211,52.3929,329.1261,-0.017174,-0.01136486,0.0,0 STARLINK-5044,1 53898U 22119N   22314.91667824 -.01136486  00000-0 -17174-1 0  9995,2 53898  53.2172  21.0211 0001217  52.3929 329.1261 15.56916161  1302,6774.725,92.491,397.415,395.766,0.0
53898.0,STARLINK-5044,PAYLOAD,2022-11-11 14:00:01,15.55282658,0.0001508,53.2169,17.8073,55.2565,103.0062,-0.018063,-0.01125769,0.0,0 STARLINK-5044,1 53898U 22119N   22315.58334491 -.01125769  00000-0 -18063-1 0  9990,2 53898  53.2169  17.8073 0001508  55.2565 103.0062 15.55282658  7926,6779.468000000003,92.588,402.355,400.311,0.0
53898.0,STARLINK-5044,PAYLOAD,2022-11-11 22:00:00,15.54406989,0.0001227,53.2168,16.2006,57.0025,168.1975,-0.01718,-0.01044403,0.0,0 STARLINK-5044,1 53898U 22119N   22315.91667824 -.01044403  00000-0 -17180-1 0  9990,2 53898  53.2168  16.2006 0001227  57.0025 168.1975 15.54406989  1308,6782.014,92.64,404.711,403.047,0.0
53898.0,STARLINK-5044,PAYLOAD,2022-11-12 06:00:00,15.53551038,0.0001077,53.2165,14.5969,74.6772,216.4691,-0.016593,-0.00983038,0.0,0 STARLINK-5044,1 53898U 22119N   22316.25001157 -.00983038  00000-0 -16593-1 0  9991,2 53898  53.2165  14.5969 0001077  74.6772 216.4691 15.53551038  8024,6784.505,92.691,407.101,405.639,0.0
53898.0,STARLINK-5044,PAYLOAD,2022-11-12 14:00:01,15.52725835,0.0001028,53.2167,12.9978,66.406,289.693,-0.016778,-0.00966029,0.0,0 STARLINK-5044,1 53898U 22119N   22316.58334491 -.00966029  00000-0 -16778-1 0  9993,2 53898  53.2167  12.9978 0001028  66.4060 289.6930 15.52725835  1302,6786.908,92.74,409.471,408.076,0.0
53898.0,STARLINK-5044,PAYLOAD,2022-11-12 22:00:00,15.51956487,0.0001395999999999,53.2168,11.3969,44.0766,15.9734,-0.018461,-0.01027859,0.0,0 STARLINK-5044,1 53898U 22119N   22316.91667824 -.01027859  00000-0 -18461-1 0  9990,2 53898  53.2168  11.3969 0001396  44.0766  15.9734 15.51956487  8137,6789.151,92.786,411.964,410.068,0.0
53898.0,STARLINK-5044,PAYLOAD,2022-11-13 04:00:01,15.5133783,0.00013,53.2163,10.1978,53.6037,323.8584,-0.018852,-0.01026553,0.0,0 STARLINK-5044,1 53898U 22119N   22317.16668981 -.01026553  00000-0 -18852-1 0  9997,2 53898  53.2163  10.1978 0001300  53.6037 323.8584 15.51337830  8174,6790.956,92.823,413.704,411.93800000000016,0.0
53898.0,STARLINK-5044,PAYLOAD,2022-11-13 14:00:01,15.50312999,0.0001215,53.2168,8.2062,51.5924,133.4281,-0.010097,-0.00543626,0.0,0 STARLINK-5044,1 53898U 22119N   22317.58334491 -.00543626  00000-0 -10097-1 0  9996,2 53898  53.2168   8.2062 0001215  51.5924 133.4281 15.50312999  1303,6793.948,92.884,416.639,414.98800000000006,0.0
53898.0,STARLINK-5044,PAYLOAD,2022-11-13 22:00:00,15.497903,9.82e-05,53.213,6.6154,35.338,210.7496,0.0019712,0.0011267,0.0,0 STARLINK-5044,1 53898U 22119N   22317.91667824  .00112670  00000-0  19712-2 0  9995,2 53898  53.2130   6.6154 0000982  35.3380 210.7496 15.49790300  1303,6795.476,92.916,418.008,416.674,0.0
